ONEWEB-0668             
1 56711U 23068B   25257.58766576  .00000091  00000+0  20474-3 0  9999
2 56711  87.8989 283.6877 0002272 103.6096 256.5288 13.16592071115514
ONEWEB-0676             
1 56712U 23068C   25257.56785953 -.00000023  00000+0 -94413-4 0  9990
2 56712  87.8980 283.7108 0001942  82.8209 277.3143 13.16594341115435
ONEWEB-0677             
1 56713U 23068D   25257.58351839 -.00000080  00000+0 -22978-3 0  9994
2 56713  87.9272 329.3784 0002109  93.7095 266.4279 13.20770992113427
ONEWEB-0678             
1 56714U 23068E   25257.52823046  .00000166  00000+0  40676-3 0  9991
2 56714  87.9034 314.1879 0001554  93.6127 266.5181 13.15549245113049
ONEWEB-0679             
1 56715U 23068F   25257.53700613  .00000034  00000+0  54028-4 0  9998
2 56715  87.8981 283.7092 0002412  90.6463 269.4944 13.16594823115451
ONEWEB-0680             
1 56716U 23068G   25257.56236472 -.00000047  00000+0 -14514-3 0  9990
2 56716  87.9200 298.9648 0002510 103.4177 256.7237 13.21825194114688
ONEWEB-0681             
1 56717U 23068H   25257.54029188  .00000009  00000+0 -92530-5 0  9996
2 56717  87.9206 298.9863 0002517  70.5593 289.5812 13.21826930114678
ONEWEB-0682             
1 56718U 23068J   25257.55437675 -.00000086  00000+0 -26356-3 0  9999
2 56718  87.9027 314.2028 0002403 102.2817 257.8582 13.15548360113213
